line1,line2,validFromUtcTime
1 00000U 00000E   26001.00000000  .00000000  00000-0  27772-4 0    01,2 00000  88.9641  15.3307 0010196 269.4394 218.2033 13.55310129    00,2026-01-01T00:00:00Z
1 00000U 00000E   26002.00000000  .00000000  00000-0  27772-4 0    02,2 00000  88.9641  15.2253 0010196 266.5287  57.3183 13.55310167    08,2026-01-02T00:00:00Z
